name,phone,address,postalZip,country,currency,color,model,numberOfCustomizations
Reagan Mason,1-198-747-2857,Ap #802-1315 Magna. Rd.,W14 9QX,France,$280.16 ,green,Ninja,5
Patience Williamson,(767) 218-3434,Ap #333-1181 Neque Rd.,11900,Peru,$43.45 ,green,Ninja,10
Herrod Love,1-734-347-2845,1728 Cras Street,687617,Singapore,$143.82 ,red,Hero,9
Xanthus Mcconnell,(262) 414-2817,"P.O. Box 156, 1543 Auctor. Av.",43581,Costa Rica,$42.09 ,indigo,Ninja,6
Hilel Rush,(185) 822-7753,Ap #750-8749 Sollicitudin Road,44812-67545,Costa Rica,$173.05 ,red,Hero,1
Denton Thomas,1-634-283-7305,368-1121 Nec Rd.,41242,Mexico,$49.22 ,yellow,Hero,1
Kirsten Church,(865) 158-1454,143-6372 Per Ave,625216,China,$233.48 ,green,Cruiser,6
Dexter Shaffer,(211) 414-5186,"Ap #729-9955 Est, St.",68087,United States,$164.86 ,red,Hero,6
Honorato Harrington,1-246-851-9818,6085 Cursus Street,18721,Colombia,$194.42 ,orange,Trickster,5
Nevada Vinson,1-148-671-2203,"P.O. Box 298, 544 Sit Rd.",3013,India,$166.12 ,yellow,Hero,5
Chester Mcknight,1-629-591-5783,934-9813 Magna Rd.,1838,Russian Federation,$69.35 ,red,Roadster,8
Calvin Norman,(597) 396-7785,Ap #154-8423 Tristique Road,33461,Indonesia,$91.38 ,indigo,Trickster,6
Guy Mcguire,1-418-673-2344,"P.O. Box 123, 9090 Ipsum Rd.",2188 LU,United Kingdom,$266.51 ,yellow,Cruiser,9
Cameron Kent,1-465-269-7359,"115 Non, Av.",274414,Canada,$151.36 ,violet,Hero,2
Dorothy Day,(678) 155-5733,7400 Eget Rd.,773135,United Kingdom,$76.54 ,yellow,Roadster,5
Anthony Lindsay,1-626-248-3647,3969 Hendrerit Rd.,3020 OE,Spain,$157.71 ,indigo,Trickster,2
Genevieve Vance,(231) 552-1139,152-4196 Donec St.,6848-2214,Chile,$142.25 ,indigo,Roadster,8
Wyoming Dunlap,(411) 582-3235,860-7220 At St.,376745,Spain,$159.15 ,indigo,Roadster,2
Mohammad Ayala,1-555-421-1339,8135 Tellus Road,25358,Turkey,$270.36 ,blue,Trickster,6
Alfonso Hoover,1-334-728-1782,"P.O. Box 868, 901 Vestibulum, St.",WC93 3TJ,Australia,$244.23 ,violet,Roadster,4
Philip Frank,1-226-758-5981,975-4880 At Street,4814,Norway,$139.53 ,yellow,Ninja,7
Alma Riggs,(712) 672-5183,446-4899 Nibh Rd.,07-761,France,$138.03 ,orange,Trickster,7
Vivien Dixon,1-365-631-2462,Ap #704-4440 Nullam Ave,12512,France,$135.21 ,violet,Roadster,1
Cassidy Sellers,1-623-468-9917,338-9112 Duis Avenue,272616,Brazil,$268.44 ,blue,Ninja,3
Zephania Figueroa,(568) 922-6720,Ap #224-3964 Fusce St.,3264,Turkey,$165.40 ,violet,Ninja,1
Quail Schmidt,1-834-761-1294,Ap #132-3730 Quis Street,74183,Philippines,$242.70 ,violet,Hero,6
Otto Woodard,(481) 385-6375,Ap #149-4009 Faucibus Street,9954,Nigeria,$191.96 ,violet,Hero,0
Cassady Cook,1-431-651-2721,Ap #328-8945 Metus. Rd.,13325-647,Chile,$96.03 ,orange,Roadster,7
Rhonda Wolfe,1-550-801-3684,Ap #318-9501 Interdum Avenue,78738,Germany,$167.60 ,green,Roadster,7
Dara Burnett,1-186-886-2176,Ap #780-1708 Faucibus Rd.,T28 0QH,Costa Rica,$172.33 ,yellow,Cruiser,9
Cameron Becker,(811) 770-1310,388-7011 Adipiscing St.,748955,Mexico,$180.16 ,red,Racer,4
Deirdre Battle,(187) 676-8155,6525 Mi. Rd.,445531,Netherlands,$276.78 ,violet,Cruiser,1
Gabriel Foreman,1-433-622-3840,"P.O. Box 118, 6451 Dictum. Avenue",2845,Colombia,$270.66 ,orange,Roadster,6
Arthur Holloway,1-372-553-8571,175-2360 Felis Av.,386668,Nigeria,$159.62 ,red,Ninja,7
Keaton May,(229) 852-8812,Ap #352-6482 Tellus Avenue,1407,Ukraine,$167.69 ,violet,Hero,3
Dennis Bell,1-990-112-9117,552-412 Dui Street,5472,Vietnam,$112.59 ,green,Trickster,4
Cassady Cameron,(371) 853-8831,Ap #936-427 Sed Rd.,82556,Brazil,$271.40 ,indigo,Ninja,2
Kiayada Schroeder,(681) 389-1177,Ap #166-6782 Convallis Av.,23718,Turkey,$115.91 ,indigo,Cruiser,2
Brennan Rowland,(450) 275-1807,Ap #737-2469 Dui Street,77-167,Nigeria,$225.33 ,violet,Hero,3
Barrett Bartlett,(850) 355-4174,918-8989 Ut Rd.,05821,Costa Rica,$163.28 ,indigo,Ninja,8
Quamar Juarez,(466) 578-5471,538-5144 Egestas Rd.,88418,Pakistan,$112.76 ,orange,Ninja,10
Craig Moses,1-745-477-4708,6282 Mauris. Avenue,88199-795,Norway,$197.16 ,blue,Hero,1
Benjamin Walls,1-432-655-8178,8782 Duis Av.,5765,Canada,$92.91 ,violet,Racer,6
Alec Goodwin,1-951-693-2342,Ap #370-7433 Lectus St.,63284-44576,Norway,$139.69 ,red,Trickster,0
Adam Andrews,(162) 734-3434,780-8838 Donec Street,1259,Costa Rica,$133.95 ,violet,Roadster,1
Venus Zamora,1-218-765-9136,870-4959 Suspendisse Rd.,1731,India,$207.91 ,indigo,Hero,10
Rana Mcconnell,(478) 849-5845,"P.O. Box 189, 2779 Amet Rd.",h1H 4L9,Germany,$56.37 ,indigo,Roadster,7
Howard Jones,(515) 375-6225,"404-6066 Nec, Road",113724,Poland,$128.96 ,violet,Hero,6
Velma Oliver,1-342-598-3880,Ap #494-7605 Nibh. Rd.,23261,Turkey,$249.10 ,green,Trickster,6
Celeste Travis,(882) 423-6372,"P.O. Box 139, 4417 Vestibulum Avenue",3456-1615,Netherlands,$141.14 ,yellow,Hero,1
Zelda Jacobson,1-387-212-4591,Ap #231-8123 Pede. Av.,3698,Singapore,$41.99 ,green,Trickster,0
Cassady Allen,(426) 654-6686,6715 Porttitor Rd.,567262,Costa Rica,$103.66 ,indigo,Roadster,2
Hyatt Colon,(507) 601-4577,2445 Lorem Road,571454,Poland,$65.50 ,orange,Cruiser,4
Robert Leonard,1-274-188-3072,Ap #147-3079 Vel Street,8747-5783,South Africa,$245.19 ,green,Racer,4
Xandra Cobb,(579) 765-7102,Ap #310-830 Pharetra Rd.,8783,Brazil,$180.42 ,red,Racer,3
Gannon Powers,(423) 205-8965,4226 Donec St.,78-79,Belgium,$264.49 ,red,Hero,3
Martina Hays,(751) 382-3937,4796 Orci Road,975881,Nigeria,$286.99 ,indigo,Racer,6
Pascale Page,1-708-488-6388,Ap #470-1487 Eleifend Street,25236,Sweden,$239.88 ,red,Cruiser,8
Teagan Valenzuela,(225) 374-8974,Ap #320-8907 Tincidunt. Av.,6729,Germany,$107.64 ,green,Ninja,5
Ezekiel Fischer,1-364-534-1571,217-2480 Lobortis. St.,8434 UF,Austria,$263.83 ,violet,Ninja,2
Jackson Leblanc,(787) 371-6013,483-265 Aliquam Rd.,627431,Colombia,$199.56 ,indigo,Roadster,7
Desiree Christian,1-348-841-8354,"Ap #390-2140 Ut, Road",44173,Italy,$230.52 ,blue,Ninja,8
Patience Atkinson,1-324-782-4456,206-7693 Dui St.,548223,France,$282.92 ,orange,Hero,9
Emily Santos,(527) 890-1458,7925 Eu Road,28841,New Zealand,$137.40 ,violet,Trickster,1
Florence Morris,1-454-765-1332,Ap #650-9246 Nec Av.,5425,New Zealand,$136.28 ,yellow,Ninja,3
Clayton Ray,(725) 402-3843,721-3565 Nunc Rd.,4754,Turkey,$258.96 ,violet,Trickster,3
Keegan Yates,1-162-746-5355,2788 Velit. St.,M88 5CI,Vietnam,$145.89 ,green,Cruiser,5
Jason Puckett,(982) 224-1533,Ap #260-4664 In Avenue,658838,Costa Rica,$165.82 ,yellow,Cruiser,4
Lucas Patterson,(635) 368-5357,Ap #238-5936 Gravida Rd.,9847,Australia,$194.65 ,green,Trickster,5
Joel Roth,1-468-826-4517,3843 Integer Ave,173181,Belgium,$282.63 ,indigo,Ninja,5
Ali Whitfield,(696) 831-5713,Ap #663-6117 Faucibus Rd.,8860,United Kingdom,$64.95 ,orange,Roadster,1
Veronica Boone,(481) 793-0181,4420 Dolor Street,1315,Netherlands,$235.34 ,violet,Trickster,1
Adrienne Hull,1-874-553-2371,359-9099 Eget Av.,464528,Poland,$203.58 ,red,Hero,9
Amy Cantrell,(262) 352-1324,"1411 Egestas, Avenue",779713,United Kingdom,$129.03 ,green,Ninja,5
Charles Norton,1-757-882-2646,Ap #608-5159 Faucibus Av.,38757,Germany,$254.91 ,violet,Ninja,5
Honorato Conway,(874) 720-9564,"P.O. Box 585, 9727 Parturient Av.",464960,Costa Rica,$115.81 ,blue,Racer,6
Graiden Summers,1-619-188-4476,"P.O. Box 345, 924 Sit Rd.",27808,New Zealand,$271.29 ,green,Ninja,4
Stewart Avila,(321) 241-3732,Ap #953-2264 Elit Av.,281923,Italy,$262.47 ,violet,Ninja,9
Vernon Bishop,1-543-723-3093,"6815 Ornare, Ave",30664,Peru,$173.33 ,red,Cruiser,8
Ebony Boyle,(612) 304-9327,Ap #316-1495 Fermentum Ave,56394,Pakistan,$249.07 ,blue,Ninja,6
Melvin Taylor,(331) 551-6770,"P.O. Box 609, 2272 Facilisi. Road",JH3 6LE,Turkey,$279.63 ,orange,Trickster,6
Phyllis Guerrero,1-371-226-6735,350-5260 Diam Ave,17111,Nigeria,$229.21 ,blue,Trickster,7
Iris English,(389) 642-2049,Ap #786-2808 Nullam Road,238454,Belgium,$214.03 ,green,Roadster,3
Ashely Santiago,(327) 358-4218,"Ap #872-8614 Vel, Street",76633,Indonesia,$125.31 ,indigo,Cruiser,2
Ann Mcfarland,1-426-281-4347,"P.O. Box 735, 9607 In, Avenue",8578,Singapore,$111.46 ,blue,Hero,1
Grady Rivers,(643) 225-5305,Ap #529-6359 Velit Rd.,333124,Costa Rica,$235.66 ,red,Cruiser,7
Scarlet Blankenship,(988) 556-2785,234-3384 Tincidunt Av.,86841,Singapore,$244.48 ,yellow,Hero,3
Jorden Carrillo,1-253-566-6931,8721 Tincidunt St.,1181,Philippines,$219.28 ,red,Cruiser,4
Quinn Atkinson,1-656-466-3286,132-2995 Euismod Ave,29250,South Korea,$265.89 ,yellow,Ninja,5
Kennedy Peterson,1-484-187-8144,5810 Donec Road,11142,South Africa,$250.79 ,yellow,Racer,5
Chastity Riley,(144) 388-5031,7605 Lobortis Av.,7882,Philippines,$88.37 ,green,Racer,8
Barclay Dennis,(366) 333-0711,Ap #696-5665 Ultrices Rd.,55472,Belgium,$41.78 ,red,Hero,5
Maia Roberson,1-242-883-7032,Ap #866-6454 Tortor. Rd.,82369,Austria,$200.62 ,violet,Roadster,10
Oscar Bass,(951) 655-9916,"P.O. Box 249, 6914 A St.",67738,Ireland,$84.96 ,red,Hero,6
Quinn Burnett,1-286-438-1285,Ap #873-175 Lectus St.,32238-40805,Brazil,$110.55 ,blue,Cruiser,0
Davis Dale,(502) 648-5876,"Ap #884-7851 Sapien, Road",51108,France,$185.38 ,indigo,Cruiser,7
Zeph Kane,(176) 328-7476,"P.O. Box 804, 7626 Luctus Rd.",553288,Norway,$137.02 ,yellow,Racer,5
Macy Wise,1-276-870-8979,Ap #620-1787 Odio. Rd.,08662,United Kingdom,$254.79 ,orange,Ninja,7
Colorado Pickett,(215) 257-7444,103-3382 Praesent St.,4155-4797,Spain,$214.95 ,indigo,Ninja,8
Kay Ashley,(836) 578-4072,Ap #450-1323 Quam Avenue,529523,Costa Rica,$115.59 ,green,Roadster,3
Jennifer Jenkins,1-622-139-3774,795 Ipsum St.,86660,Belgium,$165.40 ,green,Roadster,1
Simone Mills,1-136-987-2320,3196 Ornare St.,6699,Belgium,$213.37 ,indigo,Hero,2
Jaden Day,(271) 466-8671,6550 Faucibus Street,16705,United States,$253.04 ,red,Roadster,8
Keith Guerrero,(242) 425-2504,"Ap #620-1142 Orci, Rd.",799388,Costa Rica,$82.17 ,indigo,Trickster,8
Steven Berg,(749) 713-5382,Ap #153-6550 Luctus Avenue,57-76,Sweden,$277.36 ,blue,Hero,2
Chantale Albert,(755) 812-7652,6102 Arcu. Ave,2453,Costa Rica,$116.30 ,red,Roadster,3
Alyssa Garrett,(217) 755-7196,2602 Vitae St.,3941,South Africa,$194.17 ,yellow,Hero,7
Riley Bender,1-330-472-5584,2283 Pede Rd.,76781-582,Philippines,$266.92 ,orange,Roadster,4
Jaime Leblanc,(984) 682-0179,203-2409 Sed Avenue,09037-68580,Brazil,$204.05 ,orange,Racer,10
Xena Jennings,(996) 429-8567,"P.O. Box 407, 4646 Integer St.",33-84,India,$177.65 ,violet,Roadster,9
Aidan Floyd,(166) 184-5838,"P.O. Box 337, 3929 Ut Ave",5893,South Korea,$158.96 ,violet,Ninja,6
Joelle Rosales,(417) 465-3882,"P.O. Box 543, 3777 Mus. Rd.",51572,Turkey,$172.13 ,yellow,Hero,6
Bernard Russo,1-743-225-2061,Ap #114-5552 Euismod St.,771268,South Africa,$106.10 ,green,Ninja,10
Wanda Rodriguez,(446) 187-7042,Ap #940-1577 Arcu. St.,7132-7326,China,$189.17 ,green,Roadster,4
Kirk Mcdaniel,(453) 878-2783,Ap #111-9855 Metus Ave,56217,Turkey,$148.78 ,red,Hero,6
Alexis Tran,(746) 501-1163,"P.O. Box 277, 4323 Nulla Rd.",8873,United States,$170.66 ,violet,Ninja,6
Aimee Ferrell,1-856-742-7670,535 Morbi Avenue,48271,United States,$273.00 ,blue,Racer,10
Keaton Burns,(143) 254-8545,Ap #694-2956 Semper Rd.,28215-32441,Philippines,$252.38 ,blue,Hero,0
India Irwin,(242) 868-2466,Ap #892-4888 Sem Rd.,15-24,Netherlands,$88.47 ,orange,Roadster,4
Raymond Wilkerson,1-334-867-9391,"844-9677 Vulputate, Av.",24084,Italy,$213.66 ,orange,Ninja,7
Arthur Carter,(286) 477-8980,747-7567 Est Avenue,757326,Spain,$148.76 ,yellow,Cruiser,1
Tanek James,1-433-444-0734,8077 Curabitur Street,301213,Sweden,$135.31 ,yellow,Cruiser,7
Ahmed Welch,1-265-437-1995,404-7731 Sociis St.,7277,Singapore,$101.70 ,red,Hero,8
Stewart Reid,(295) 389-3122,Ap #773-1484 Varius Rd.,8174,Italy,$41.01 ,red,Trickster,3
Christine Gay,(718) 215-3945,348-7773 Conubia St.,17505,India,$281.06 ,orange,Trickster,1
Lawrence Merritt,1-244-941-3907,"821-1490 Non, St.",87888-20737,Vietnam,$191.94 ,red,Roadster,1
Cheyenne Petersen,1-666-776-0910,"P.O. Box 240, 9180 Nec Rd.",57K 7Y7,Belgium,$199.85 ,yellow,Cruiser,8
Keaton Hanson,1-686-813-5135,Ap #734-6042 Curabitur Street,752946,Mexico,$121.30 ,violet,Racer,2
Geoffrey Diaz,1-603-721-5334,Ap #108-1251 Placerat Av.,86144,Italy,$49.95 ,indigo,Trickster,2
Shaine Gordon,(550) 504-2782,Ap #440-1982 Nec Avenue,48269,Ireland,$42.30 ,violet,Hero,1
Athena Black,1-547-744-7577,727-8475 Erat St.,871399,Costa Rica,$93.93 ,blue,Hero,2
Liberty Wade,(531) 584-4807,237-3086 Phasellus Avenue,70710,Pakistan,$227.52 ,violet,Racer,6
Xander Contreras,1-129-202-6870,2585 Mauris Ave,345362,Turkey,$122.30 ,orange,Hero,3
Lewis Macias,(423) 347-8968,Ap #438-4922 Sapien. Road,1309-5043,New Zealand,$216.21 ,violet,Roadster,0
Naida Leblanc,(463) 561-5449,836-1856 Ipsum. Rd.,2944,Poland,$81.38 ,red,Racer,5
Lewis O'connor,(729) 411-5660,923-926 Nec Rd.,S3H 4G9,France,$115.96 ,violet,Hero,8
Charlotte Brooks,1-484-454-9657,979-2602 In St.,81420,United Kingdom,$42.97 ,yellow,Cruiser,4
Curran Franco,1-456-827-4176,Ap #360-9624 Sem Rd.,21617,Ukraine,$83.11 ,violet,Trickster,4
Kane Rivers,(592) 414-3138,540-1375 Convallis St.,53921-57598,Mexico,$113.85 ,yellow,Ninja,4
Jade Hull,1-245-774-8581,"312-8119 Non, St.",25841,Russian Federation,$97.96 ,violet,Hero,1
Riley Blevins,(228) 885-6668,"Ap #257-1989 Quis, St.",5716 RM,Brazil,$208.47 ,red,Cruiser,2
Shelly Moses,(309) 368-3366,"P.O. Box 261, 5528 Lorem Road",30724,Pakistan,$102.80 ,green,Roadster,4
Elijah Scott,(570) 611-1353,182-9174 Ut Avenue,5135,South Africa,$282.10 ,orange,Roadster,2
Colorado Finley,1-849-665-5242,9810 Fringilla St.,38-038,India,$52.22 ,violet,Hero,10
Cody Prince,1-341-515-2013,"6283 Dui, Av.",188968,Brazil,$248.05 ,indigo,Racer,2
Avye Carter,1-212-938-0613,102-8722 Egestas. Ave,724204,Netherlands,$215.16 ,orange,Roadster,6
Logan Sims,(890) 568-1255,"874-2129 Felis, St.",8791,Chile,$195.77 ,red,Hero,5
Leslie Blackburn,1-933-238-2920,Ap #428-8891 Purus Avenue,525314,Mexico,$95.81 ,yellow,Hero,2
Declan Frazier,1-237-257-6149,Ap #426-8285 Vivamus St.,50514,South Africa,$286.38 ,violet,Hero,4
Neil Mann,(705) 265-3826,"P.O. Box 999, 1336 Eget St.",52844,Costa Rica,$127.97 ,violet,Ninja,3
Piper Ware,1-271-716-8121,Ap #508-1951 Morbi Rd.,63-821,Chile,$272.64 ,violet,Roadster,1
Maya Anderson,(753) 727-5641,Ap #435-6606 Consectetuer Avenue,0315 JO,Ireland,$54.41 ,indigo,Racer,4
Erin Ingram,(295) 271-8675,4589 Pede. Street,77807,Nigeria,$79.07 ,violet,Trickster,10
Fritz Parker,(687) 388-0129,Ap #292-9232 Nonummy St.,312275,Indonesia,$180.63 ,orange,Trickster,9
Kirestin Mccarthy,1-650-771-4261,"147-5124 Consequat, St.",17340,Sweden,$62.15 ,blue,Roadster,8
Meghan Chan,1-287-470-1641,811-8534 Nulla St.,0313 TV,France,$128.98 ,green,Ninja,2
Justin Lawson,1-362-178-2458,417-3104 Ut Ave,9001-9245,Indonesia,$137.52 ,indigo,Ninja,9
Chastity O'connor,(182) 537-2525,8183 Ipsum Rd.,524918,United States,$195.36 ,yellow,Roadster,4
Karyn Fitzpatrick,(606) 441-4585,"P.O. Box 961, 5790 Ornare. Rd.",372351,Poland,$189.44 ,yellow,Roadster,9
Colby Neal,(431) 585-6158,"P.O. Box 847, 7507 Purus Street",73547,South Africa,$65.28 ,yellow,Ninja,1
Piper Glover,(893) 244-3215,"Ap #388-6292 Id, Ave",7746,Austria,$100.08 ,violet,Hero,9
Wynne Sosa,(781) 364-6185,"Ap #988-2100 Tincidunt, St.",26683,Belgium,$151.36 ,green,Ninja,3
Sonya Lewis,(214) 754-4591,"P.O. Box 211, 6662 Leo St.",68426,Nigeria,$159.18 ,indigo,Hero,8
Cherokee Dyer,(111) 170-7768,Ap #823-8877 Dolor Av.,398676,New Zealand,$66.34 ,indigo,Cruiser,5
Hayden Mcguire,(476) 590-2141,8490 Dui. Street,20317,Austria,$108.60 ,blue,Ninja,7
Dillon Webb,1-338-374-1733,"P.O. Box 394, 3151 Dolor, St.",61895,South Africa,$213.92 ,orange,Hero,2
Madonna Shepherd,(588) 572-6954,963-9680 Ullamcorper Road,6309,Brazil,$155.90 ,indigo,Hero,0
Audra Porter,(112) 222-4450,286-1949 Ornare St.,64-22,China,$64.80 ,violet,Roadster,5
Raymond Norton,1-365-208-3307,Ap #947-2462 Donec Avenue,69728,Canada,$144.75 ,indigo,Ninja,5
Serena Beach,1-733-306-0813,156-9264 Pellentesque Ave,408314,Germany,$226.10 ,orange,Ninja,10
Carla Clements,1-592-255-5226,Ap #757-6260 Tincidunt St.,68157-484,Peru,$213.36 ,red,Roadster,4
Hilary Calderon,(872) 731-4319,Ap #392-7706 Nibh Av.,531631,Australia,$141.38 ,red,Trickster,1
Malik Day,1-447-132-7514,Ap #458-5602 Nulla Ave,22657,Pakistan,$121.96 ,yellow,Hero,5
Aaron Castillo,(343) 124-2779,Ap #228-6591 Justo Road,83022,Sweden,$213.69 ,indigo,Roadster,8
Andrew Benton,(105) 539-1656,"530 Risus, Avenue",13758,Norway,$277.78 ,green,Roadster,4
Berk Moses,(458) 453-2274,4481 Neque St.,6757,Belgium,$278.20 ,indigo,Cruiser,0
Christen Padilla,(808) 367-1766,592-3092 Tincidunt Av.,7986,New Zealand,$233.95 ,red,Roadster,7
Maite Chambers,1-442-377-2533,884-6352 Gravida. Ave,41118,Poland,$222.26 ,violet,Ninja,6
Jaquelyn George,1-274-474-2221,Ap #848-339 Pellentesque Rd.,67813,Chile,$66.07 ,orange,Cruiser,3
Thane Decker,(663) 239-0302,845-5451 Turpis. St.,198621,Pakistan,$241.37 ,red,Hero,9
Kasper Watson,1-546-507-8945,6238 Malesuada St.,14893,United Kingdom,$60.12 ,blue,Trickster,6
Bryar Barry,(497) 221-4800,Ap #476-5577 Molestie Ave,6411,Norway,$79.33 ,yellow,Ninja,5
Tyrone Fuentes,(731) 262-3245,Ap #456-2426 Suspendisse Road,73182,Ukraine,$40.40 ,violet,Roadster,2
Miriam Mooney,1-760-646-8348,6421 Nam Street,S7L 8T3,Ireland,$127.26 ,orange,Ninja,3
Ethan Hooper,1-796-465-2739,"7600 A, Street",0360,Ireland,$248.71 ,red,Trickster,4
Ria Stephens,(418) 503-0177,3228 Libero Av.,557778,Austria,$222.21 ,blue,Cruiser,5
Dora Mercer,(726) 845-6242,8702 Convallis St.,644162,Netherlands,$51.95 ,indigo,Hero,5
Naomi Hogan,(925) 451-6562,Ap #433-7267 Fringilla St.,814274,Philippines,$59.60 ,indigo,Roadster,3
Davis Black,1-325-140-7867,362-7191 Cras Av.,73734-510,New Zealand,$278.44 ,yellow,Cruiser,0
Yardley Jacobson,1-211-791-1833,Ap #303-8222 Eros Rd.,2689,Philippines,$153.80 ,blue,Roadster,2
Gemma Ruiz,1-914-693-4161,102-7643 Eget St.,7913,Peru,$125.52 ,blue,Racer,5
Salvador Flores,1-726-434-9725,"P.O. Box 521, 9366 Nulla Rd.",784466,South Korea,$260.95 ,red,Roadster,1
Amos Robinson,1-282-181-5245,770-8465 Urna Avenue,6659,Pakistan,$43.03 ,green,Racer,6
Ezra Kemp,(476) 453-5121,127-9784 At St.,951368,South Korea,$55.26 ,indigo,Cruiser,2
Aline Meyers,(986) 757-1789,Ap #205-180 Sodales Av.,217358,Spain,$200.68 ,violet,Ninja,10
Louis Ferrell,(828) 269-4308,5224 Aliquam Street,60668,Ireland,$226.58 ,orange,Roadster,7
Addison Chambers,(793) 325-1037,1808 Sit St.,639462,Netherlands,$128.79 ,red,Ninja,6
Hollee Barry,1-476-348-4667,Ap #556-8895 Risus. Street,667274,Turkey,$248.44 ,blue,Ninja,7
Raphael Schroeder,1-424-638-2638,830-765 Aliquam Av.,789499,Mexico,$226.09 ,yellow,Roadster,0
Holmes Walter,(353) 203-2138,Ap #853-2354 Lorem Av.,17937,Brazil,$278.16 ,green,Ninja,3
Ivan Webb,1-447-623-4212,617-3149 Dapibus Ave,64-27,Russian Federation,$133.49 ,green,Roadster,7
Renee Berg,1-711-610-5651,Ap #228-4237 Sit Rd.,18297,Costa Rica,$73.46 ,red,Cruiser,10
Adele Mayo,1-923-343-1629,Ap #766-9877 Malesuada Rd.,R2Y 1A4,Philippines,$82.15 ,yellow,Trickster,6
Leroy Morrison,1-698-513-7766,"P.O. Box 832, 3267 A Avenue",T1M 8Y2,Germany,$274.14 ,red,Ninja,4
Maisie Miles,1-276-891-4789,"P.O. Box 344, 6705 Facilisis, Avenue",38-348,Sweden,$241.50 ,indigo,Ninja,7
Geoffrey Hodge,1-624-287-8621,Ap #316-1908 Tincidunt Road,217686,South Africa,$226.40 ,blue,Hero,0
Thor Lamb,1-344-853-0543,603-2539 Phasellus Road,46995-35761,Norway,$253.30 ,violet,Cruiser,8
Echo Valdez,(564) 484-2026,Ap #154-4700 Aenean Av.,83453,Germany,$164.99 ,violet,Ninja,10
Joan Flores,(825) 552-6162,"Ap #259-7892 Eu, Av.",1207 HK,Belgium,$247.78 ,indigo,Trickster,8
Colorado Fuller,1-775-972-5648,261-8135 Tortor. Road,164522,Vietnam,$160.60 ,red,Cruiser,7
Amal Galloway,(965) 408-5349,Ap #140-3937 Tellus Rd.,47722,Spain,$200.45 ,red,Ninja,7
Scott Fletcher,(956) 670-0935,"965-3758 Vitae, Av.",665465,Italy,$51.90 ,red,Ninja,8
Harding Grimes,1-145-443-1911,8683 Fermentum Av.,5952,India,$54.58 ,orange,Racer,0
Paki Cooper,1-636-905-4785,684-2019 Nulla St.,61434,Norway,$77.70 ,violet,Cruiser,6
Donovan Mullins,1-795-869-6484,433-7492 Consequat Rd.,499347,Belgium,$148.35 ,violet,Cruiser,6
Whilemina Stevenson,1-721-367-5932,Ap #260-9370 Euismod Road,254135,New Zealand,$182.40 ,red,Hero,7
James Soto,1-643-488-8445,322-8092 Tristique St.,77-53,United Kingdom,$254.37 ,violet,Cruiser,8
Minerva Hunter,(157) 334-5464,Ap #748-4664 Sed St.,61210,Australia,$259.87 ,green,Roadster,7
Lana Gay,1-321-717-3544,"P.O. Box 826, 5086 Tellus Av.",41604,Turkey,$210.80 ,green,Roadster,1
Evelyn Cherry,(731) 838-1682,"P.O. Box 984, 4915 Aliquam St.",38971,Germany,$73.60 ,yellow,Cruiser,6
Geraldine Dudley,(378) 927-0470,Ap #886-6447 Suspendisse St.,623663,Pakistan,$205.26 ,indigo,Racer,9
Mira Rogers,(729) 711-5432,392-7578 Amet Ave,5812-8354,Belgium,$220.75 ,orange,Roadster,5
Honorato Simmons,(534) 806-7499,"P.O. Box 205, 2803 Sed Avenue",12467,Vietnam,$213.01 ,blue,Ninja,5
Jerry Conley,(362) 762-5399,Ap #115-3120 Cursus. Ave,549271,Ireland,$232.14 ,violet,Ninja,3
Odysseus Tyson,1-365-422-3548,"Ap #182-5445 At, Avenue",2277,Canada,$197.18 ,green,Cruiser,6
Frances Snider,(522) 818-9225,"682-6831 Orci, Av.",7914,Philippines,$132.27 ,green,Hero,7
Melyssa Delaney,(461) 514-7455,Ap #808-7673 Nisi Av.,05842-59557,Nigeria,$100.71 ,green,Cruiser,5
Clark Morton,1-543-726-6674,"P.O. Box 898, 3151 Ipsum Ave",2607,Italy,$215.08 ,yellow,Racer,8
Ross Howard,1-466-951-6836,"672 Magna, Rd.",968436,India,$114.55 ,green,Roadster,8
Noelani Hayden,1-785-220-3487,Ap #968-8777 Nisl Avenue,366526,Spain,$51.48 ,violet,Racer,6
Portia Walters,(433) 851-8465,Ap #705-5072 In Road,507509,Indonesia,$217.63 ,yellow,Cruiser,6
Dawn Ashley,1-685-437-4634,Ap #237-941 Non Avenue,41663,Norway,$160.55 ,yellow,Ninja,8
Cassady Hammond,(553) 504-2946,243-4807 Felis Street,3618,Vietnam,$62.31 ,yellow,Trickster,8
Amaya Norris,(329) 617-5701,"947-9041 Ornare, Av.",57-641,Singapore,$280.25 ,violet,Racer,2
Kaye Harrell,1-506-253-2975,"114-9555 Vulputate, Road",0834,Italy,$196.75 ,red,Trickster,4
Remedios Jordan,(690) 873-3856,"9232 Luctus, St.",2370,Australia,$127.12 ,blue,Roadster,3
Ivor Knapp,(381) 661-4747,833-735 Sodales Ave,246694,China,$279.10 ,yellow,Cruiser,2
Cheyenne Castro,(527) 575-2393,2513 Velit. Avenue,3647,Australia,$135.39 ,orange,Ninja,1
Megan Sellers,1-216-911-1437,"P.O. Box 421, 4643 Mauris. St.",435891,Australia,$92.80 ,green,Cruiser,7
Brenden Randall,(870) 179-2326,"144-256 A, Ave",5027,Singapore,$285.55 ,green,Trickster,5
Chelsea Mckenzie,(908) 406-2158,371-4983 Egestas. Av.,3673,Poland,$88.89 ,yellow,Racer,2
Allen Crosby,1-418-532-8579,"Ap #870-1670 Convallis, Road",96808,South Africa,$276.94 ,blue,Racer,6
Bert Dejesus,1-780-428-7868,"P.O. Box 315, 5044 Libero. Street",347366,Norway,$131.42 ,blue,Ninja,6
Ashely Mcclain,(554) 948-4671,"Ap #147-2294 A, Rd.",1587,India,$155.26 ,yellow,Roadster,4
Naomi Mooney,1-287-427-3975,"P.O. Box 338, 809 In Street",7192-4332,United Kingdom,$229.39 ,orange,Trickster,9
Reed Palmer,(468) 125-8862,979-3717 Pellentesque Rd.,845484,Brazil,$162.63 ,orange,Hero,5
Jonas Lucas,(822) 685-2662,158-4571 Dolor Rd.,26442,Peru,$220.58 ,violet,Hero,3
Philip Fisher,(924) 205-3499,548-7126 Mauris St.,37459,Austria,$146.14 ,violet,Racer,5
Bertha Bishop,(552) 236-6282,Ap #748-4552 Primis Road,404815,Norway,$264.86 ,violet,Roadster,8
Roth Phelps,(828) 863-1751,883-3569 Aliquet Road,938577,China,$66.09 ,orange,Cruiser,7
Anastasia Pitts,(857) 326-5573,7009 Aliquam Rd.,493884,Poland,$59.82 ,violet,Racer,0
Fleur Jackson,1-262-348-2617,Ap #602-5457 Elit. Rd.,30402,Netherlands,$141.28 ,orange,Cruiser,3
Philip Phelps,1-787-160-1303,4235 Gravida Av.,45604,Norway,$104.14 ,green,Cruiser,8
Dana Horton,(417) 454-1277,7283 Nisl. Ave,40612,Turkey,$279.81 ,green,Cruiser,6
Barry Stephenson,(273) 495-3624,792-4109 Sed Street,210613,Singapore,$273.74 ,blue,Ninja,2
Cadman Morgan,1-688-534-8871,"7617 Tempor, Road",6341,Brazil,$230.31 ,violet,Ninja,4
Odessa Strong,1-428-965-5742,2753 Turpis Av.,01291,Philippines,$180.98 ,red,Hero,8
George Livingston,(247) 367-0861,547-2267 Magna. Ave,98528-444,Philippines,$156.97 ,indigo,Roadster,7
Martha Ratliff,1-453-246-3816,Ap #354-1711 Lorem St.,816982,Peru,$195.83 ,violet,Hero,9
Aaron Dean,1-228-309-9423,Ap #621-659 Ligula Rd.,7038,South Africa,$254.29 ,red,Hero,5
Marshall Boyle,(788) 607-6184,3628 Imperdiet St.,86174,Ukraine,$134.21 ,indigo,Racer,4
Gage Potts,1-831-802-3469,"P.O. Box 947, 4447 Accumsan St.",68001,Germany,$127.65 ,violet,Trickster,2
Gay Hamilton,1-617-636-8725,"P.O. Box 512, 7322 Cursus. Rd.",64380,China,$214.29 ,orange,Trickster,1
Lila Koch,(978) 650-0264,Ap #665-3219 Volutpat. Avenue,48-88,United Kingdom,$246.94 ,violet,Cruiser,8
Basil Morton,1-713-575-4224,585-3236 Facilisi. Ave,9353,Chile,$96.10 ,orange,Racer,10
Leslie Owen,(401) 984-4186,149-554 Neque. Rd.,9887,Canada,$120.60 ,violet,Cruiser,6
Plato Petersen,(437) 164-2723,"6860 Risus, Avenue",92722,Mexico,$132.70 ,green,Hero,7
Latifah Marquez,1-711-161-9691,400-1975 Etiam Ave,645732,Vietnam,$106.56 ,blue,Roadster,5
Madison Singleton,1-922-725-4225,"223-6089 Placerat, Street",83-860,United States,$135.10 ,green,Roadster,3
Illiana Hughes,(135) 636-8312,Ap #495-3560 Cum Rd.,88426-624,France,$218.57 ,yellow,Hero,0
Marah Bartlett,1-615-549-5956,1599 Maecenas Rd.,65433-72589,Australia,$104.34 ,yellow,Ninja,1
Dylan Wood,1-208-570-3953,"P.O. Box 721, 8202 Vitae Ave",104814,United States,$232.24 ,yellow,Trickster,4
Desirae Luna,1-610-455-5887,732-5889 Ac Rd.,62789-329,Norway,$222.28 ,indigo,Cruiser,1
Merritt Ross,1-388-312-3192,Ap #814-2335 Lectus Ave,8930,New Zealand,$214.08 ,yellow,Trickster,4
Yuli Ratliff,1-625-496-2137,"Ap #766-389 Non, St.",8073,New Zealand,$146.63 ,blue,Cruiser,5
Kuame Morris,(743) 220-5522,"250-9933 Elementum, Street",21806,Australia,$85.61 ,green,Cruiser,10
Hedy Ortega,1-320-922-1643,Ap #947-5718 Ornare Avenue,11924,Singapore,$46.70 ,orange,Hero,6
Cailin Bradford,1-812-787-4023,"P.O. Box 311, 5799 Ultrices, Rd.",71663,Mexico,$116.37 ,green,Hero,9
Melinda Landry,(862) 640-6692,Ap #328-1984 Eu St.,65410-511,Vietnam,$98.71 ,orange,Trickster,8
Ocean Henry,1-659-215-4168,Ap #885-1710 Sed Avenue,745879,Russian Federation,$241.94 ,orange,Ninja,4
Dorian Andrews,1-115-331-9665,"805-6807 Nec, Rd.",61201,Singapore,$229.20 ,indigo,Cruiser,1
Oleg Levy,(652) 586-7839,Ap #899-2456 Lectus Street,481831,Turkey,$40.11 ,green,Roadster,2
Anjolie Roy,(378) 524-5731,616-5635 In Avenue,R2W 4A9,Ukraine,$95.66 ,indigo,Cruiser,4
Nasim Allison,1-984-596-5147,Ap #754-2567 Tempor Ave,16725-77224,New Zealand,$107.23 ,yellow,Cruiser,3
Rajah Bray,(237) 844-4776,Ap #311-8886 Nascetur Rd.,3652-3994,Pakistan,$284.68 ,yellow,Trickster,9
Nelle Chapman,(288) 186-8506,704-5009 Nulla. St.,5831,Italy,$154.08 ,orange,Ninja,0
Bianca Travis,1-234-202-1223,278 Duis Av.,25707-914,United Kingdom,$207.25 ,blue,Ninja,2
Darryl Mcconnell,1-320-894-4174,635-3068 Ut St.,59712,Mexico,$117.67 ,yellow,Roadster,6
Kiona Franklin,(469) 682-9595,Ap #624-8582 Phasellus Ave,151576,New Zealand,$54.97 ,violet,Roadster,9
Ava Pruitt,1-114-766-5672,Ap #142-3534 Mi Rd.,3852,Chile,$53.09 ,red,Hero,2
Samson Mack,(134) 417-5153,Ap #153-9095 Mauris Street,9326,Philippines,$94.77 ,green,Cruiser,5
Vincent Cline,(754) 138-5558,"P.O. Box 704, 4393 Consequat Street",3308,Netherlands,$50.88 ,red,Ninja,8
Brian Vang,(543) 553-3619,2734 Urna. Ave,C7L 5H7,India,$272.35 ,orange,Cruiser,3
Peter Hall,(881) 576-2327,371-4872 Nunc Rd.,201477,Russian Federation,$159.57 ,blue,Ninja,1
Sigourney Mccoy,1-423-590-2324,655-1473 Urna. Ave,214475,Ukraine,$89.62 ,yellow,Ninja,6
Lee Burton,(168) 702-5465,Ap #902-9733 Erat. St.,82863,Costa Rica,$195.22 ,red,Ninja,5
Ira Riggs,1-660-250-8242,420-2584 Nunc Rd.,16446-11570,Nigeria,$162.13 ,green,Ninja,7
Elliott Burt,(848) 624-2174,6635 Adipiscing Rd.,18-64,South Korea,$187.98 ,blue,Cruiser,1
Evan Murray,(544) 668-8476,"P.O. Box 934, 3503 Dictum St.",351647,Norway,$270.53 ,green,Cruiser,2
Jeanette Stone,1-843-258-8027,"1980 Sapien, Rd.",40-550,Brazil,$283.99 ,violet,Roadster,9
Neve Travis,1-916-369-2897,Ap #785-9161 Consectetuer Avenue,65-87,Ireland,$240.64 ,indigo,Cruiser,1
Kenneth Albert,(547) 145-3432,2308 Ligula Av.,33797,Philippines,$67.56 ,indigo,Roadster,2
David Cruz,1-229-826-3787,Ap #161-4293 Nisl Avenue,21338,Netherlands,$142.35 ,violet,Cruiser,6
Grant Delacruz,(372) 294-4311,Ap #106-6978 Tincidunt Rd.,4318,Spain,$243.21 ,red,Ninja,2
Caesar Herrera,(772) 905-1414,"P.O. Box 379, 3140 Mollis Av.",53698,Colombia,$193.18 ,violet,Cruiser,4
Adrienne Stanton,(416) 834-3428,6609 Lectus Street,68-46,Costa Rica,$116.15 ,orange,Hero,6
Rahim Ashley,(743) 717-7448,540-2797 At Street,9858,South Africa,$41.26 ,indigo,Racer,9
Zenaida Kelley,(824) 388-5682,3574 Lorem Ave,UL7 6XT,Chile,$242.61 ,orange,Hero,9
Macaulay Moon,1-437-632-1930,Ap #963-8980 Cras Rd.,11301,Australia,$76.99 ,orange,Racer,5
Valentine West,1-617-689-8316,"P.O. Box 711, 7059 Velit. St.",349126,Norway,$203.40 ,yellow,Trickster,3
Astra Rocha,(936) 853-1612,"P.O. Box 417, 2745 Ipsum Road",23626,Spain,$204.93 ,yellow,Ninja,9
Kuame Singleton,(718) 722-1218,"P.O. Box 283, 802 Tellus St.",02-252,New Zealand,$128.71 ,green,Hero,3
Christen Davenport,(512) 695-8789,"6828 Pharetra, Rd.",7435 UJ,Spain,$68.53 ,blue,Racer,2
Curran Wise,(356) 528-9726,Ap #521-9605 Aliquet St.,1310,South Korea,$218.79 ,blue,Hero,1
Samantha Francis,1-625-453-3602,200 Malesuada Rd.,43-56,Brazil,$158.21 ,orange,Trickster,8
Harrison Meyer,(637) 386-2188,"P.O. Box 884, 8488 Lacus. Road",8514,Vietnam,$146.81 ,violet,Ninja,3
Wynter Davis,1-366-742-1222,Ap #886-3360 Sapien. Rd.,8222,Chile,$61.73 ,green,Racer,2
Debra Byers,(332) 527-7576,Ap #152-8311 Aliquam Street,6364,New Zealand,$151.42 ,yellow,Cruiser,5
Francesca Graves,(341) 710-5459,Ap #249-5440 Volutpat Rd.,7288,Russian Federation,$49.14 ,violet,Ninja,7
Malachi Hopkins,1-224-616-1351,620-4636 Magnis Rd.,15232,Norway,$207.27 ,violet,Roadster,10
Clarke Bolton,1-180-435-5308,2224 Tincidunt Rd.,7619,Philippines,$200.25 ,indigo,Cruiser,10
Beatrice Perry,1-574-363-5115,150-1927 Orci. Rd.,27284,China,$205.35 ,blue,Hero,3
Juliet Hamilton,1-569-373-6466,Ap #592-954 Erat Road,8667,Vietnam,$286.71 ,blue,Racer,1
Hayden Cook,(858) 697-1484,5330 Nunc Av.,620602,France,$99.64 ,yellow,Cruiser,0
Clinton Thornton,(655) 858-9878,"P.O. Box 681, 9990 Nunc Avenue",8816,United States,$224.18 ,blue,Ninja,3
Keith Arnold,(177) 868-2872,"8170 Vulputate, St.",362211,Mexico,$140.83 ,blue,Ninja,2
Dolan Morgan,(278) 488-3446,Ap #868-1787 Nibh. Street,787582,Peru,$100.25 ,violet,Trickster,10
Allistair Lopez,1-734-623-3808,Ap #838-9848 Nisi Road,50801,Belgium,$119.00 ,green,Ninja,0
Keegan Cotton,1-707-648-2759,3259 Malesuada Rd.,79236,Belgium,$65.01 ,green,Cruiser,2
Theodore Morse,1-347-605-4532,628-4303 Ultricies Avenue,4466,Indonesia,$224.95 ,blue,Hero,3
Emmanuel Gross,(473) 488-3738,Ap #354-9003 Lorem St.,47517,Mexico,$93.40 ,green,Trickster,7
Isaac Hull,1-551-318-2451,Ap #354-5838 Non Rd.,67-55,Canada,$111.41 ,indigo,Ninja,9
Dennis Miller,1-424-614-6180,"P.O. Box 204, 5355 Ultrices St.",180250,South Korea,$168.30 ,orange,Roadster,4
Beck Ashley,1-533-246-1147,668-724 Metus Street,664743,India,$149.66 ,yellow,Ninja,5
Dante Coffey,(656) 429-3186,473-3146 Arcu. St.,5408,Costa Rica,$230.18 ,orange,Ninja,3
Peter Slater,1-258-897-2431,Ap #271-563 A Road,16433,Chile,$216.88 ,green,Ninja,8
Aurelia Hanson,1-836-204-0172,"P.O. Box 656, 3879 Sapien, St.",350049,Poland,$83.07 ,violet,Ninja,7
Lara Andrews,(729) 461-2818,"P.O. Box 856, 2205 Tempor Road",71982,Germany,$134.22 ,yellow,Roadster,8
Rhea Holloway,(864) 427-3560,Ap #664-8475 Lorem Ave,25868,Belgium,$280.12 ,orange,Trickster,5
Kathleen Hoover,1-337-933-6118,"P.O. Box 295, 3492 Sit Rd.",8385,Turkey,$125.14 ,green,Racer,2
Vera Guy,1-419-787-7742,"Ap #701-4802 A, Street",362704,Colombia,$278.23 ,indigo,Hero,3
Grant Gamble,1-143-762-5435,8491 Quisque Rd.,13005,Austria,$237.92 ,violet,Ninja,10
Kylan Mckinney,(753) 804-8564,3258 Duis St.,5477,Belgium,$279.05 ,violet,Hero,1
Clayton Dudley,(571) 978-8662,7287 Sapien. Rd.,28-55,United States,$42.02 ,yellow,Roadster,3
Dorian Mitchell,(646) 138-3667,1488 Integer St.,796543,Ukraine,$253.66 ,green,Trickster,9
Shana Travis,1-698-281-8449,"P.O. Box 948, 2323 Dolor, Rd.",10514,Norway,$226.57 ,violet,Racer,0
Eliana Ramirez,(641) 864-4508,Ap #626-7795 Scelerisque Avenue,622781,Philippines,$280.28 ,red,Hero,7
Rina Horton,(120) 727-3837,358-405 Varius. St.,68-63,Norway,$188.07 ,violet,Racer,6
Dahlia Stevens,(493) 437-7124,208-8956 Semper Rd.,453345,Russian Federation,$143.11 ,blue,Hero,1
Mariko Pollard,(949) 456-6063,"Ap #145-3693 Quis, Ave",1175-5251,Mexico,$114.66 ,blue,Trickster,3
Rina Boone,(641) 876-5034,Ap #892-6704 Mattis Road,86866,Pakistan,$221.88 ,yellow,Hero,9
Octavia Blair,(416) 436-4211,Ap #930-9743 Vivamus St.,4314,Philippines,$175.07 ,indigo,Cruiser,8
Garrett Olsen,1-679-368-7283,Ap #346-4399 Auctor St.,4852,United Kingdom,$43.63 ,yellow,Ninja,6
Sage Richard,(772) 923-4733,344 Cubilia Rd.,3859,Nigeria,$277.27 ,blue,Racer,6
Randall Mclaughlin,(562) 616-6196,Ap #511-6816 Per St.,B2C 5R5,Canada,$140.01 ,indigo,Hero,4
Steven Wright,(517) 271-7343,"P.O. Box 518, 5745 Amet Rd.",10208,South Korea,$219.03 ,indigo,Cruiser,2
Evan Guerrero,1-612-205-1445,"945-1220 Nec, Av.",1017 RU,Italy,$126.97 ,blue,Roadster,5
Chaney Hodge,1-381-805-8866,886-4157 Sem St.,5762-7341,Peru,$275.31 ,violet,Ninja,8
Erin Franklin,1-761-601-6366,262-4582 Sociis Rd.,734853,Mexico,$103.36 ,green,Roadster,4
Constance Mann,1-655-574-3977,245-8584 Lorem. Road,8148,New Zealand,$238.45 ,blue,Cruiser,0
Kadeem Ortiz,1-133-624-1547,Ap #899-751 Fames Av.,1611,Turkey,$226.61 ,orange,Ninja,2
Yeo Lawrence,1-129-361-4778,Ap #954-2918 Sapien. Avenue,75672,Peru,$93.11 ,red,Ninja,7
Heather Grant,1-657-545-7933,"P.O. Box 978, 3886 Natoque Av.",464962,United Kingdom,$144.34 ,blue,Ninja,5
Dalton Daniels,1-945-776-3189,828-9940 Cras St.,8122,Italy,$170.83 ,blue,Roadster,0
Mikayla Rollins,1-604-623-8275,4729 Molestie Road,4465,Sweden,$241.71 ,indigo,Ninja,7
Nicholas Baxter,(312) 501-2443,"P.O. Box 971, 3846 Nullam Road",5546,United States,$257.53 ,orange,Ninja,0
Jermaine Joyner,(379) 150-5396,Ap #601-5026 Sagittis. Avenue,58380-130,Ukraine,$123.25 ,indigo,Cruiser,6
Thor Farmer,(633) 986-2611,Ap #484-4050 Sagittis St.,120152,Vietnam,$75.73 ,blue,Ninja,1
Demetria Figueroa,1-808-848-4016,716-9360 Neque Street,6022,South Korea,$198.54 ,green,Cruiser,1
Felix Bernard,(817) 848-1158,520-9677 Nulla Avenue,18-142,Poland,$279.79 ,yellow,Cruiser,9
Montana Cummings,(317) 833-3014,327-5182 Augue St.,207824,Germany,$218.30 ,yellow,Trickster,6
Silas Valdez,(221) 714-5664,"P.O. Box 657, 9244 Lorem, Rd.",3838,Singapore,$126.48 ,indigo,Hero,0
Susan Lynch,1-351-437-7624,8022 Fringilla St.,65136-823,Spain,$198.18 ,indigo,Cruiser,4
Janna Blake,(243) 795-6087,Ap #363-1927 Nulla Road,06187-18336,Ireland,$263.42 ,orange,Cruiser,4
Nevada Hale,(584) 878-6421,171-4971 Et St.,66124,United States,$279.18 ,yellow,Racer,1
Inga Mcdaniel,(905) 154-4099,903-5305 Urna. Ave,64927-73584,Canada,$255.50 ,yellow,Cruiser,6
Cailin Mathews,1-241-612-5438,551-5591 Mollis Av.,785887,Italy,$103.41 ,orange,Cruiser,2
Kyla Washington,1-198-206-0223,"196-9529 Vulputate, St.",3801,Pakistan,$247.88 ,red,Roadster,3
Ray Frank,1-747-472-4413,834-5777 Luctus Rd.,10316,Pakistan,$87.87 ,yellow,Ninja,1
Hashim Hill,(142) 525-7054,"P.O. Box 781, 9319 Dolor Av.",99988,South Africa,$104.60 ,indigo,Cruiser,9
Xena Sykes,(582) 333-5101,"P.O. Box 436, 2165 Lobortis Road",301848,Netherlands,$268.02 ,blue,Trickster,6
Nolan Terry,(697) 658-8047,"P.O. Box 255, 2946 Ultrices Rd.",54676,Costa Rica,$186.67 ,green,Cruiser,1
Martin Bass,(535) 411-4343,"927-9896 Ut, Street",6043,United States,$262.79 ,red,Roadster,2
Finn Nelson,1-837-299-8081,"Ap #679-8808 Dolor, St.",42236,Canada,$69.30 ,violet,Ninja,7
Alvin Benton,1-188-329-9482,894-8608 Vel Road,55-83,Australia,$90.25 ,orange,Cruiser,4
Natalie Nicholson,1-844-844-3593,"Ap #498-9422 Montes, Street",14611,Canada,$276.07 ,green,Roadster,1
Aphrodite Vasquez,(126) 440-9481,"P.O. Box 679, 5943 Cras Rd.",664834,South Korea,$93.76 ,blue,Hero,9
Ainsley Maxwell,(566) 586-8512,524-1169 Ligula. St.,A6M 7K4,Ireland,$81.07 ,violet,Trickster,3
Kevyn Casey,(242) 209-2363,Ap #340-3361 Eu Avenue,12317,Singapore,$174.50 ,indigo,Trickster,6
September Rice,(575) 735-1387,559-2064 Dui Ave,7338,Philippines,$142.64 ,violet,Cruiser,10
Aurelia Dean,1-938-629-1468,542-1056 Ridiculus Rd.,X06 4PB,Mexico,$256.82 ,violet,Roadster,4
Quon Walsh,(605) 328-1578,Ap #146-4916 Mauris Ave,15287-23483,Ukraine,$128.15 ,violet,Cruiser,8
Francesca Melendez,(611) 678-5703,"8040 Orci, St.",47787,Italy,$244.74 ,indigo,Ninja,4
Isaiah Langley,1-870-184-3863,"Ap #769-567 Et, Ave",3234,South Africa,$65.75 ,blue,Roadster,4
Sage Glenn,(677) 641-4347,Ap #234-1542 Lacus. Road,54628,Russian Federation,$156.10 ,green,Ninja,7
Hyacinth Patton,(918) 933-5130,"7081 Nec, Road",35-93,Italy,$240.34 ,violet,Hero,10
Kirestin Norton,(574) 223-3404,554-5167 Fermentum Ave,5991,Poland,$210.84 ,violet,Cruiser,6
Gareth Phillips,1-545-878-4041,"P.O. Box 761, 3939 Fames Rd.",21300,Turkey,$220.71 ,violet,Hero,7
Cally Burnett,1-691-682-5447,851-4121 Sit Avenue,17699,Poland,$160.73 ,orange,Racer,4
Rosalyn Fletcher,(715) 331-8286,Ap #395-4504 Condimentum Ave,1113-8832,Pakistan,$178.55 ,orange,Cruiser,2
Isaac Mcfadden,1-314-674-2883,"P.O. Box 305, 2522 Ornare. Ave",1186 MQ,Russian Federation,$170.10 ,green,Cruiser,2
Gay Hendrix,(924) 185-6374,"P.O. Box 614, 9419 Fusce Ave",72286,United States,$53.51 ,blue,Roadster,6
Lani Mccall,1-661-252-5698,Ap #856-5927 Tristique St.,678111,Costa Rica,$235.57 ,yellow,Cruiser,2
Dustin Horne,1-413-688-8739,Ap #847-2223 Nascetur Rd.,52783,Indonesia,$227.66 ,yellow,Ninja,9
Boris Mcmillan,(567) 850-4537,Ap #392-1100 Integer Rd.,B9N 7E4,New Zealand,$273.97 ,blue,Cruiser,4
Ashton Leon,1-328-417-6575,179-2860 Turpis Avenue,273617,Singapore,$183.51 ,yellow,Cruiser,8
Cody Dickson,(528) 652-2435,Ap #905-9140 Aliquam Av.,34124,Ukraine,$94.58 ,indigo,Roadster,8
Charissa Stanley,(383) 667-5276,Ap #152-6475 Est Avenue,88357,Mexico,$82.41 ,orange,Hero,4
Ryder Lopez,1-529-535-7153,"P.O. Box 845, 3518 Neque. Rd.",96498-48336,China,$201.27 ,yellow,Trickster,0
Kylie Bowen,(566) 880-5249,Ap #494-3382 Nisi Avenue,6683,China,$108.29 ,yellow,Hero,3
Bernard Park,(218) 959-8538,6911 Sed Avenue,485487,France,$145.48 ,indigo,Cruiser,4
Forrest Lowe,(311) 611-8810,Ap #205-8209 Lacus. Rd.,1885 JE,India,$105.82 ,yellow,Roadster,5
Garth Banks,(384) 582-2231,Ap #198-5328 Nunc Street,221554,South Africa,$277.21 ,red,Cruiser,6
Fletcher Coffey,1-116-746-4160,Ap #673-2175 Auctor. Rd.,65229-088,Indonesia,$213.64 ,orange,Hero,4
Hammett Moody,1-873-973-9837,Ap #471-9188 Eros. Avenue,76168,France,$204.01 ,indigo,Ninja,2
Zena Rojas,(544) 652-1083,Ap #806-7162 Mauris Street,31411,Brazil,$88.38 ,indigo,Hero,3
Mallory Sanders,1-622-544-4786,677-4435 Malesuada Rd.,O9X 8G0,New Zealand,$258.39 ,indigo,Hero,1
Dieter Mckenzie,1-974-827-4887,"9408 A, Ave",W2J 5KB,Germany,$122.76 ,red,Cruiser,10
Reece Mullins,(639) 277-3576,851-2682 Purus Rd.,532521,India,$265.78 ,indigo,Racer,1
Carter Malone,(525) 400-6991,Ap #548-977 Mollis. Avenue,816318,France,$153.65 ,blue,Hero,6
Dominic Mcgowan,1-638-962-6854,1211 Sit St.,63689-70787,Chile,$197.50 ,violet,Racer,2
Alexander Santana,(442) 784-1761,778-1439 Ipsum Av.,7286,Norway,$122.13 ,indigo,Ninja,8
Craig Meyer,(933) 960-5682,"Ap #952-7606 A, Avenue",26782,Sweden,$195.44 ,red,Hero,8
Kelly Jarvis,(458) 287-2184,498-5755 Morbi Street,62-333,Netherlands,$44.79 ,indigo,Racer,5
Grant Shepherd,1-724-562-9861,633-9299 Amet Ave,18887,Chile,$168.88 ,red,Ninja,3
Tanner Armstrong,(668) 983-7616,"P.O. Box 132, 9465 Etiam St.",362183,Austria,$116.47 ,blue,Roadster,1
Nathan Massey,(868) 681-6276,Ap #644-6074 Suspendisse Ave,82-586,Philippines,$121.93 ,red,Racer,3
Azalia Kinney,(218) 860-3615,Ap #165-7835 Nam Street,536089,South Korea,$107.05 ,yellow,Racer,2
Henry Cobb,(686) 298-5041,"P.O. Box 508, 1262 Enim St.",56447,Ukraine,$128.38 ,orange,Ninja,2
Stuart Garrison,(118) 218-4486,324-4167 Dictum. St.,39614,United Kingdom,$137.14 ,orange,Hero,3
Liberty Lambert,1-736-943-5462,537-4707 Aenean St.,8574,South Africa,$245.27 ,red,Roadster,4
Aurora Bowen,(533) 135-0881,"P.O. Box 358, 3771 Urna, Ave",905101,Poland,$142.74 ,orange,Trickster,7
Sybill Stuart,1-765-949-8778,Ap #357-4314 Sollicitudin Av.,283904,Germany,$59.00 ,violet,Ninja,5
Murphy Vazquez,1-828-285-4387,"P.O. Box 101, 3454 Mauris Street",433464,Poland,$141.04 ,violet,Ninja,6
Alana Travis,(991) 767-1367,Ap #822-2440 Nascetur Road,40318,Indonesia,$193.54 ,violet,Roadster,8
Nash Peck,1-438-895-7062,"861-6731 Id, Rd.",7768-6628,Pakistan,$247.92 ,yellow,Hero,2
Amir Clay,1-437-308-2730,164-4493 Est Road,2156,Chile,$99.54 ,yellow,Roadster,2
Galena Vaughan,(216) 972-1318,Ap #408-7333 Sagittis Avenue,81142-46130,Austria,$53.53 ,orange,Roadster,1
Edan Olsen,1-713-666-3212,"P.O. Box 955, 719 Curabitur Street",8791,Italy,$106.60 ,blue,Cruiser,5
Eaton Ward,1-466-218-5231,"P.O. Box 344, 701 Molestie St.",44397,France,$158.68 ,violet,Racer,0
Candace Collier,1-458-302-1863,230-5359 Consequat St.,617447,Philippines,$232.58 ,red,Ninja,6
Stephen Larson,1-407-912-5776,601-3575 Tincidunt Rd.,15701,Turkey,$212.63 ,yellow,Cruiser,4
Kelly Puckett,(293) 972-6678,"P.O. Box 268, 4885 Bibendum Av.",517661,United Kingdom,$227.14 ,yellow,Trickster,4
Lunea Carr,1-324-291-4019,606-9037 Interdum Rd.,82176,Colombia,$187.96 ,orange,Ninja,3
Beck Spencer,(410) 347-5681,2653 Quam Rd.,85172,Pakistan,$49.54 ,violet,Hero,9
Hashim Downs,1-291-427-6660,6138 Adipiscing St.,541438,New Zealand,$116.88 ,yellow,Cruiser,10
Carlos Vazquez,1-371-788-6954,395-4205 Vel Rd.,3253,Ukraine,$199.12 ,violet,Hero,2
Jarrod Duke,1-774-617-7597,450-1224 Felis Av.,618275,France,$107.43 ,violet,Trickster,5
Kevin Holder,(835) 771-3879,Ap #654-3256 Ornare Av.,901568,Russian Federation,$93.31 ,red,Cruiser,0
Caldwell Bryan,(462) 536-4255,"Ap #297-1486 Sapien, Ave",323087,Costa Rica,$229.25 ,indigo,Roadster,4
Desiree Pruitt,1-181-198-6481,Ap #505-1062 Lectus Avenue,P4C 2L3,South Korea,$281.52 ,green,Hero,7
Burke Gilbert,(674) 466-4663,Ap #900-5248 Vestibulum Rd.,1532,United Kingdom,$136.28 ,blue,Ninja,6
Leigh Clemons,1-378-604-2426,Ap #910-724 Lacus. Rd.,83534,Pakistan,$236.85 ,orange,Hero,9
Hayfa Rosales,(678) 578-8802,Ap #273-5309 Odio Ave,17477,China,$167.74 ,red,Hero,1
Stacy Greer,(914) 681-2179,Ap #983-1923 Ante Street,81765,Sweden,$174.11 ,indigo,Trickster,6
Morgan Hale,(248) 665-5404,Ap #976-8182 Ligula Av.,S5N 4P8,Pakistan,$167.29 ,red,Hero,6
Garrett Beck,(324) 864-4613,3967 Aliquam Street,736118,Ukraine,$78.15 ,green,Ninja,2
Warren Rocha,(646) 209-4187,868-5231 Enim. Street,5588,Philippines,$224.26 ,red,Ninja,6
Camilla Green,1-523-963-8214,Ap #570-1332 Nisi. St.,134121,Turkey,$272.35 ,red,Roadster,9
Rebekah Ware,1-294-777-6748,573-2210 Cursus Rd.,4036,Singapore,$95.38 ,green,Roadster,8
Iona Clayton,1-637-247-1183,"750-6573 Placerat, Rd.",6520,Russian Federation,$149.88 ,red,Trickster,6
Gemma Bruce,(885) 570-5430,Ap #874-9743 Etiam Rd.,293412,Turkey,$212.88 ,indigo,Ninja,1
Gil Landry,(116) 177-0147,6026 Malesuada Avenue,752176,Austria,$94.08 ,yellow,Ninja,5
George Owen,(227) 377-2081,Ap #219-2832 Semper Street,43819,China,$65.75 ,blue,Ninja,4
Flynn Norton,(612) 872-7459,936-2158 Id St.,2457,Turkey,$73.14 ,violet,Hero,1
TaShya Hutchinson,(702) 354-1918,568-4008 Urna. St.,34336,Philippines,$80.22 ,indigo,Racer,4
Kirk Decker,1-591-833-5552,8180 Nunc St.,34732,France,$265.27 ,yellow,Ninja,8
Hayden Mclaughlin,1-962-245-7266,"304-7384 Luctus, St.",8439 GS,United Kingdom,$262.73 ,blue,Trickster,0
Drake Jackson,(612) 280-6353,"P.O. Box 333, 7515 Libero. St.",857277,Mexico,$165.67 ,red,Hero,1
Montana Glenn,1-599-628-4380,"P.O. Box 383, 3063 Felis. Rd.",DO5 2IV,Germany,$141.02 ,yellow,Roadster,2
Kameko Hays,(176) 848-7100,Ap #244-4056 Ridiculus Rd.,8452,Pakistan,$240.67 ,blue,Racer,0
Upton Glass,1-498-831-1454,899-4771 Dui. Ave,5459,Mexico,$184.02 ,yellow,Cruiser,9
Wesley Mason,(201) 305-5893,Ap #168-5323 Erat. Street,957276,Italy,$156.25 ,violet,Roadster,6
Stone Whitehead,1-777-874-2450,Ap #374-1812 Hendrerit. Road,6631,Canada,$197.30 ,blue,Roadster,9
Hu Sanders,1-918-893-1681,646-4199 Mollis Road,3127,New Zealand,$242.23 ,green,Roadster,8
Gil Vang,(447) 889-9332,630-4060 Adipiscing Av.,9023,China,$167.34 ,indigo,Trickster,3
Xaviera Byers,(395) 571-7381,"P.O. Box 495, 3058 Vestibulum Ave",75-713,Mexico,$113.83 ,yellow,Cruiser,2
Clementine Rosales,(664) 434-1560,"467-2352 Amet, Ave",24-871,India,$80.99 ,red,Ninja,2
Paki Evans,1-582-272-2753,"P.O. Box 710, 4627 Vulputate Rd.",0274,Italy,$200.53 ,blue,Hero,10
Ramona Dawson,(382) 561-8331,956 Diam Ave,15963,Netherlands,$173.75 ,green,Hero,2
Ivy Cain,1-638-915-7269,"P.O. Box 820, 824 Ut Ave",277037,Peru,$64.75 ,red,Roadster,2
Lucas Galloway,1-636-268-4591,Ap #368-6764 Sed St.,132383,Russian Federation,$283.60 ,indigo,Racer,3
Garth Mitchell,(774) 386-4664,776-9164 Sagittis Av.,515703,New Zealand,$192.10 ,green,Roadster,2
Kasper English,(126) 404-1434,"Ap #586-1858 Sed, Rd.",78756,Mexico,$245.48 ,indigo,Cruiser,9
Craig Miles,1-255-933-7603,7156 Tellus Street,63306,Norway,$156.91 ,red,Hero,1
Amela Hughes,(248) 752-5171,984-9245 Consequat Avenue,763753,South Africa,$271.15 ,green,Racer,2
Yen Foley,(862) 515-1568,"3928 Amet, Rd.",1771,France,$115.92 ,violet,Ninja,6
Brittany Holcomb,(830) 946-7328,Ap #903-3790 Nibh Street,8143,France,$103.64 ,blue,Cruiser,10
Trevor Levine,(302) 467-5282,"P.O. Box 580, 8815 Duis Rd.",1836,Pakistan,$155.07 ,blue,Hero,8
Azalia Kidd,(234) 984-3465,439-559 Malesuada Av.,1835,Poland,$219.34 ,violet,Cruiser,1
Odette Goff,1-768-305-7206,597-9980 Sit Rd.,458484,Colombia,$197.57 ,green,Hero,9
Carolyn William,1-466-745-3104,774-7022 Ipsum. Ave,667341,South Africa,$140.43 ,yellow,Roadster,5
Castor Vaughn,1-891-529-1275,Ap #112-7160 Mauris Ave,2441,Peru,$203.76 ,green,Hero,2
Avram Russo,(332) 925-0423,875-3928 Risus. Road,335181,Vietnam,$226.01 ,green,Ninja,2
Reed Lowe,1-317-780-6236,"P.O. Box 725, 2828 Mollis St.",136115,Peru,$250.57 ,indigo,Racer,9
Quinn Alvarez,1-767-787-7330,"P.O. Box 582, 8336 Sem. Avenue",07276,New Zealand,$59.46 ,red,Trickster,10
Xena Blackwell,1-140-273-6658,"P.O. Box 596, 6812 Hendrerit Rd.",601878,New Zealand,$272.55 ,red,Ninja,6
Mechelle Richard,1-855-422-3121,Ap #402-4696 Et Ave,5981,China,$65.07 ,blue,Cruiser,7
Clio David,(410) 347-4154,"P.O. Box 861, 9849 Etiam Av.",17987-539,United States,$236.44 ,violet,Roadster,9
Yeo Stafford,(745) 774-5115,513-2256 Nunc. Avenue,71202,China,$239.41 ,indigo,Hero,6
